start=new Date('2022-03-13T00:00:00.000Z').valueOf();
sats=[{"EPOCH":"2022-03-12T22:00:56.335680","NORAD_CAT_ID":"47878","ECCENTRICITY":"0.00018560","CENTER_NAME":"EARTH","REV_AT_EPOCH":"5626","SITE":"AFETR","BSTAR":"0.00009703000000","APOAPSIS":"548.445","MEAN_MOTION_DDOT":"0.0000000000000","OBJECT_NAME":"STARLINK-2335","FILE":"3356931","SEMIMAJOR_AXIS":"6925.295","MEAN_MOTION_DOT":"0.00001165","OBJECT_ID":"2021-021U","ARG_OF_PERICENTER":"56.0856","ELEMENT_SET_NO":"999","REF_FRAME":"TEME","PERIOD":"95.591","MEAN_MOTION":"15.06417599","MEAN_ANOMALY":"304.0309","EPHEMERIS_TYPE":"0","MEAN_ELEMENT_THEORY":"SGP4","GP_ID":"198605195","TLE_LINE1":"1 47878U 21021U   22071.91731870  .00001165  00000-0  97030-4 0  9994","COUNTRY_CODE":"US","INCLINATION":"53.0553","OBJECT_TYPE":"PAYLOAD","DECAY_DATE":null,"TIME_SYSTEM":"UTC","LAUNCH_DATE":"2021-03-14","RCS_SIZE":"LARGE","RA_OF_ASC_NODE":"335.8169","CLASSIFICATION_TYPE":"U","TLE_LINE2":"2 47878  53.0553 335.8169 0001856  56.0856 304.0309 15.06417599 56267","PERIAPSIS":"545.874"},{"SITE":"AFETR","REV_AT_EPOCH":"5643","BSTAR":"0.00005563100000","APOAPSIS":"548.475","MEAN_MOTION_DDOT":"0.0000000000000","NORAD_CAT_ID":"47879","EPOCH":"2022-03-12T21:56:17.891808","ECCENTRICITY":"0.00018360","CENTER_NAME":"EARTH","OBJECT_ID":"2021-021V","ARG_OF_PERICENTER":"56.0064","REF_FRAME":"TEME","ELEMENT_SET_NO":"999","PERIOD":"95.592","OBJECT_NAME":"STARLINK-2336","FILE":"3356931","SEMIMAJOR_AXIS":"6925.339","MEAN_MOTION_DOT":"0.00000547","EPHEMERIS_TYPE":"0","GP_ID":"198603943","MEAN_ELEMENT_THEORY":"SGP4","MEAN_ANOMALY":"304.1100","MEAN_MOTION":"15.06403167","LAUNCH_DATE":"2021-03-14","RA_OF_ASC_NODE":"350.8388","RCS_SIZE":"LARGE","TLE_LINE2":"2 47879  53.0561 350.8388 0001836  56.0064 304.1100 15.06403167 56431","CLASSIFICATION_TYPE":"U","PERIAPSIS":"545.932","TLE_LINE1":"1 47879U 21021V   22071.91409597  .00000547  00000-0  55631-4 0  9997","OBJECT_TYPE":"PAYLOAD","COUNTRY_CODE":"US","INCLINATION":"53.0561","DECAY_DATE":null,"TIME_SYSTEM":"UTC"},{"MEAN_MOTION_DDOT":"0.0000000000000","APOAPSIS":"548.543","BSTAR":"0.00054583000000","REV_AT_EPOCH":"5630","SITE":"AFETR","CENTER_NAME":"EARTH","ECCENTRICITY":"0.00020050","EPOCH":"2022-03-12T18:06:03.603168","NORAD_CAT_ID":"47880","PERIOD":"95.591","REF_FRAME":"TEME","ELEMENT_SET_NO":"999","ARG_OF_PERICENTER":"47.9792","OBJECT_ID":"2021-021W","MEAN_MOTION_DOT":"0.00007862","FILE":"3356931","SEMIMAJOR_AXIS":"6925.290","OBJECT_NAME":"STARLINK-2337","GP_ID":"198604193","MEAN_ELEMENT_THEORY":"SGP4","EPHEMERIS_TYPE":"0","MEAN_MOTION":"15.06419193","MEAN_ANOMALY":"312.1368","PERIAPSIS":"545.766","CLASSIFICATION_TYPE":"U","TLE_LINE2":"2 47880  53.0569 346.5268 0002005  47.9792 312.1368 15.06419193 56303","RCS_SIZE":"LARGE","RA_OF_ASC_NODE":"346.5268","LAUNCH_DATE":"2021-03-14","TIME_SYSTEM":"UTC","DECAY_DATE":null,"INCLINATION":"53.0569","COUNTRY_CODE":"US","OBJECT_TYPE":"PAYLOAD","TLE_LINE1":"1 47880U 21021W   22071.75420837  .00007862  00000-0  54583-3 0  9992"},{"CENTER_NAME":"EARTH","ECCENTRICITY":"0.00014230","EPOCH":"2022-03-12T21:54:18.448128","NORAD_CAT_ID":"47881","MEAN_MOTION_DDOT":"0.0000000000000","APOAPSIS":"548.175","BSTAR":"0.00003174300000","REV_AT_EPOCH":"5629","SITE":"AFETR","MEAN_MOTION_DOT":"0.00000191","SEMIMAJOR_AXIS":"6925.324","FILE":"3356931","OBJECT_NAME":"STARLINK-2339","PERIOD":"95.592","ELEMENT_SET_NO":"999","REF_FRAME":"TEME","OBJECT_ID":"2021-021X","ARG_OF_PERICENTER":"68.4272","MEAN_MOTION":"15.06407888","MEAN_ANOMALY":"291.6868","MEAN_ELEMENT_THEORY":"SGP4","GP_ID":"198604945","EPHEMERIS_TYPE":"0","TIME_SYSTEM":"UTC","DECAY_DATE":null,"COUNTRY_CODE":"US","INCLINATION":"53.0572","OBJECT_TYPE":"PAYLOAD","TLE_LINE1":"1 47881U 21021X   22071.91271352  .00000191  00000-0  31743-4 0  9999","PERIAPSIS":"546.204","CLASSIFICATION_TYPE":"U","TLE_LINE2":"2 47881  53.0572 345.8374 0001423  68.4272 291.6868 15.06407888 56294","RCS_SIZE":"LARGE","RA_OF_ASC_NODE":"345.8374","LAUNCH_DATE":"2021-03-14"},{"BSTAR":"0.00017730000000","REV_AT_EPOCH":"5663","SITE":"AFETR","MEAN_MOTION_DDOT":"0.0000000000000","APOAPSIS":"548.206","EPOCH":"2022-03-12T21:18:28.267488","NORAD_CAT_ID":"47882","CENTER_NAME":"EARTH","ECCENTRICITY":"0.00014910","ARG_OF_PERICENTER":"69.9007","OBJECT_ID":"2021-021Y","PERIOD":"95.591","ELEMENT_SET_NO":"999","REF_FRAME":"TEME","FILE":"3356931","SEMIMAJOR_AXIS":"6925.309","OBJECT_NAME":"STARLINK-2340","MEAN_MOTION_DOT":"0.00002361","GP_ID":"198605696","MEAN_ELEMENT_THEORY":"SGP4","EPHEMERIS_TYPE":"0","MEAN_MOTION":"15.06412947","MEAN_ANOMALY":"290.2142","RCS_SIZE":"LARGE","RA_OF_ASC_NODE":"335.9423","LAUNCH_DATE":"2021-03-14","PERIAPSIS":"546.141","CLASSIFICATION_TYPE":"U","TLE_LINE2":"2 47882  53.0563 335.9423 0001491  69.9007 290.2142 15.06412947 56637","INCLINATION":"53.0563","COUNTRY_CODE":"US","OBJECT_TYPE":"PAYLOAD","TLE_LINE1":"1 47882U 21021Y   22071.88782717  .00002361  00000-0  17730-3 0  9998","TIME_SYSTEM":"UTC","DECAY_DATE":null},{"SITE":"AFETR","REV_AT_EPOCH":"5657","BSTAR":"-0.00012792000000","APOAPSIS":"548.384","MEAN_MOTION_DDOT":"0.0000000000000","NORAD_CAT_ID":"47883","EPOCH":"2022-03-12T22:13:32.857536","ECCENTRICITY":"0.00016910","CENTER_NAME":"EARTH","ARG_OF_PERICENTER":"53.0115","OBJECT_ID":"2021-021Z","ELEMENT_SET_NO":"999","REF_FRAME":"TEME","PERIOD":"95.592","OBJECT_NAME":"STARLINK-2342","SEMIMAJOR_AXIS":"6925.347","FILE":"3356931","MEAN_MOTION_DOT":"-0.00002186","EPHEMERIS_TYPE":"0","GP_ID":"198604444","MEAN_ELEMENT_THEORY":"SGP4","MEAN_ANOMALY":"307.1029","MEAN_MOTION":"15.06400353","LAUNCH_DATE":"2021-03-14","RA_OF_ASC_NODE":"340.7781","RCS_SIZE":"LARGE","TLE_LINE2":"2 47883  53.0548 340.7781 0001691  53.0115 307.1029 15.06400353 56571","CLASSIFICATION_TYPE":"U","PERIAPSIS":"546.041","TLE_LINE1":"1 47883U 21021Z   22071.92607474 -.00002186  00000-0 -12792-3 0  9990","OBJECT_TYPE":"PAYLOAD","INCLINATION":"53.0548","COUNTRY_CODE":"US","DECAY_DATE":null,"TIME_SYSTEM":"UTC"},{"APOAPSIS":"548.372","MEAN_MOTION_DDOT":"0.0000000000000","SITE":"AFETR","REV_AT_EPOCH":"5632","BSTAR":"0.00042823000000","CENTER_NAME":"EARTH","ECCENTRICITY":"0.00017570","NORAD_CAT_ID":"47884","EPOCH":"2022-03-12T21:48:59.911200","ELEMENT_SET_NO":"999","REF_FRAME":"TEME","PERIOD":"95.591","OBJECT_ID":"2021-021AA","ARG_OF_PERICENTER":"62.2315","MEAN_MOTION_DOT":"0.00006106","OBJECT_NAME":"STARLINK-2343","FILE":"3356931","SEMIMAJOR_AXIS":"6925.290","EPHEMERIS_TYPE":"0","GP_ID":"198604694","MEAN_ELEMENT_THEORY":"SGP4","MEAN_ANOMALY":"297.8852","MEAN_MOTION":"15.06418988","TLE_LINE2":"2 47884  53.0568 345.8521 0001757  62.2315 297.8852 15.06418988 56324","CLASSIFICATION_TYPE":"U","PERIAPSIS":"545.939","LAUNCH_DATE":"2021-03-14","RA_OF_ASC_NODE":"345.8521","RCS_SIZE":"LARGE","DECAY_DATE":null,"TIME_SYSTEM":"UTC","TLE_LINE1":"1 47884U 21021AA  22071.90902675  .00006106  00000-0  42823-3 0  9992","OBJECT_TYPE":"PAYLOAD","INCLINATION":"53.0568","COUNTRY_CODE":"US"},{"MEAN_MOTION_DDOT":"0.0000000000000","APOAPSIS":"548.402","BSTAR":"0.00049478000000","REV_AT_EPOCH":"5635","SITE":"AFETR","ECCENTRICITY":"0.00018110","CENTER_NAME":"EARTH","EPOCH":"2022-03-12T12:07:08.054976","NORAD_CAT_ID":"47885","PERIOD":"95.591","ELEMENT_SET_NO":"999","REF_FRAME":"TEME","OBJECT_ID":"2021-021AB","ARG_OF_PERICENTER":"63.3659","MEAN_MOTION_DOT":"0.00007100","FILE":"3356520","SEMIMAJOR_AXIS":"6925.283","OBJECT_NAME":"STARLINK-2344","MEAN_ELEMENT_THEORY":"SGP4","GP_ID":"198570096","EPHEMERIS_TYPE":"0","MEAN_MOTION":"15.06421447","MEAN_ANOMALY":"296.7515","PERIAPSIS":"545.894","CLASSIFICATION_TYPE":"U","TLE_LINE2":"2 47885  53.0563 352.6586 0001811  63.3659 296.7515 15.06421447 56352","RCS_SIZE":"LARGE","RA_OF_ASC_NODE":"352.6586","LAUNCH_DATE":"2021-03-14","TIME_SYSTEM":"UTC","DECAY_DATE":null,"COUNTRY_CODE":"US","INCLINATION":"53.0563","OBJECT_TYPE":"PAYLOAD","TLE_LINE1":"1 47885U 21021AB  22071.50495434  .00007100  00000-0  49478-3 0  9997"},{"MEAN_ELEMENT_THEORY":"SGP4","GP_ID":"198605196","EPHEMERIS_TYPE":"0","MEAN_MOTION":"15.06388704","MEAN_ANOMALY":"305.0844","RCS_SIZE":"LARGE","RA_OF_ASC_NODE":"340.8826","LAUNCH_DATE":"2021-03-14","PERIAPSIS":"546.072","CLASSIFICATION_TYPE":"U","TLE_LINE2":"2 47886  53.0571 340.8826 0001698  55.0305 305.0844 15.06388704 56400","INCLINATION":"53.0571","COUNTRY_CODE":"US","OBJECT_TYPE":"PAYLOAD","TLE_LINE1":"1 47886U 21021AC  22071.90303005 -.00000066  00000-0  14508-4 0  9996","TIME_SYSTEM":"UTC","DECAY_DATE":null,"BSTAR":"0.00001450800000","REV_AT_EPOCH":"5640","SITE":"AFETR","MEAN_MOTION_DDOT":"0.0000000000000","APOAPSIS":"548.424","EPOCH":"2022-03-12T21:40:21.796320","NORAD_CAT_ID":"47886","CENTER_NAME":"EARTH","ECCENTRICITY":"0.00016980","OBJECT_ID":"2021-021AC","ARG_OF_PERICENTER":"55.0305","PERIOD":"95.593","ELEMENT_SET_NO":"999","REF_FRAME":"TEME","FILE":"3356931","SEMIMAJOR_AXIS":"6925.383","OBJECT_NAME":"STARLINK-2345","MEAN_MOTION_DOT":"-0.00000066"},{"GP_ID":"198603944","MEAN_ELEMENT_THEORY":"SGP4","EPHEMERIS_TYPE":"0","MEAN_MOTION":"15.06424493","MEAN_ANOMALY":"288.6588","RCS_SIZE":"LARGE","RA_OF_ASC_NODE":"345.7666","LAUNCH_DATE":"2021-03-14","PERIAPSIS":"546.010","CLASSIFICATION_TYPE":"U","TLE_LINE2":"2 47887  53.0544 345.7666 0001630  71.4578 288.6588 15.06424493 56336","INCLINATION":"53.0544","COUNTRY_CODE":"US","OBJECT_TYPE":"PAYLOAD","TLE_LINE1":"1 47887U 21021AD  22071.92745253  .00002851  00000-0  21006-3 0  9997","TIME_SYSTEM":"UTC","DECAY_DATE":null,"BSTAR":"0.00021006000000","REV_AT_EPOCH":"5633","SITE":"AFETR","MEAN_MOTION_DDOT":"0.0000000000000","APOAPSIS":"548.267","EPOCH":"2022-03-12T22:15:31.898592","NORAD_CAT_ID":"47887","ECCENTRICITY":"0.00016300","CENTER_NAME":"EARTH","OBJECT_ID":"2021-021AD","ARG_OF_PERICENTER":"71.4578","PERIOD":"95.591","ELEMENT_SET_NO":"999","REF_FRAME":"TEME","SEMIMAJOR_AXIS":"6925.273","FILE":"3356931","OBJECT_NAME":"STARLINK-2346","MEAN_MOTION_DOT":"0.00002851"}];
